1 25159U 98007C   16030.83368732  .00000359  00000-0  19177-3 0  9991,2 25159 107.9759 341.0683 0042772  67.4727 293.0929 14.29009146934525
1 25159U 98007C   16031.81371545 +.00000381 +00000-0 +20030-3 0  9991,2 25159 107.9760 343.0645 0042814 065.7175 294.8426 14.29010327934593
1 25159U 98007C   16032.51373496  .00000448  00000-0  22622-3 0  9999,2 25159 107.9761 344.4903 0042862  64.4542 296.1018 14.29011483934768
1 25159U 98007C   16032.79374262 +.00000446 +00000-0 +22544-3 0  9992,2 25159 107.9761 345.0607 0042867 063.9504 296.6037 14.29011809934738
1 25159U 98007C   16033.84377088  .00000424  00000-0  21680-3 0  9994,2 25159 107.9762 347.1995 0042915  62.0766 298.4706 14.29012884934957
1 25159U 98007C   16033.91377273 +.00000391 +00000-0 +20397-3 0  9995,2 25159 107.9763 347.3421 0042910 061.9517 298.5950 14.29012783934894
1 25159U 98007C   16034.89379804  .00000385  00000-0  20183-3 0  9991,2 25159 107.9764 349.3383 0042955  60.1947 300.3451 14.29013913935100
1 25159U 98007C   16035.80382072 +.00000402 +00000-0 +20849-3 0  9993,2 25159 107.9765 351.1920 0043018 058.5654 301.9678 14.29015114935165
1 25159U 98007C   16036.50383755  .00000414  00000-0  21316-3 0  9993,2 25159 107.9767 352.6179 0043070  57.3275 303.2005 14.29016068935330
1 25159U 98007C   16036.85384553 +.00000431 +00000-0 +21987-3 0  9991,2 25159 107.9768 353.3309 0043055 056.6871 303.8378 14.29016659935314
1 25159U 98007C   16037.83386785  .00000466  00000-0  23331-3 0  9992,2 25159 107.9769 355.3272 0043113  54.9467 305.5703 14.29018117935528
1 25159U 98007C   16037.90386929 +.00000454 +00000-0 +22883-3 0  9998,2 25159 107.9769 355.4698 0043101 054.8164 305.6998 14.29018170935460
1 25159U 98007C   16038.81388891 +.00000516 +00000-0 +25265-3 0  9995,2 25159 107.9771 357.3235 0043142 053.2022 307.3062 14.29019742935593
1 25159U 98007C   16039.51390290  .00000622  00000-0  29418-3 0  9991,2 25159 107.9773 358.7494 0043172  51.9572 308.5449 14.29021430935763
1 25159U 98007C   16039.79390846 +.00000612 +00000-0 +29029-3 0  9995,2 25159 107.9774 359.3198 0043186 051.4544 309.0452 14.29021799935736
1 25159U 98007C   16040.84392868  .00000593  00000-0  28267-3 0  9990,2 25159 107.9776   1.4587 0043235  49.5919 310.8978 14.29023236935959
1 25159U 98007C   16041.89394738 +.00000541 +00000-0 +26272-3 0  9991,2 25159 107.9777 003.5976 0043291 047.7339 312.7457 14.29024623936037
1 25159U 98007C   16041.96394860  .00000540  00000-0  26199-3 0  9992,2 25159 107.9777   3.7402 0043295  47.6113 312.8676 14.29024717936113
1 25159U 98007C   16042.80396235 +.00000634 +00000-0 +29893-3 0  9992,2 25159 107.9779 005.4514 0043344 046.1285 314.3420 14.29026618936168
1 25159U 98007C   16043.50397315  .00000663  00000-0  31003-3 0  9998,2 25159 107.9779   6.8774 0043388  44.9047 315.5587 14.29027944936330
1 25159U 98007C   16043.85397822 +.00000663 +00000-0 +31017-3 0  9994,2 25159 107.9780 007.5904 0043399 044.2766 316.1830 14.29028564936313
1 25159U 98007C   16044.83399192  .00000619  00000-0  29310-3 0  9999,2 25159 107.9781   9.5868 0043457  42.5503 317.8989 14.29029989936528
1 25159U 98007C   16044.90399279 +.00000621 +00000-0 +29386-3 0  9999,2 25159 107.9781 009.7294 0043459 042.4260 318.0223 14.29030139936460
1 25159U 98007C   16045.88400490  .00000736  00000-0  33873-3 0  9998,2 25159 107.9782  11.7259 0043507  40.6942 319.7433 14.29032491936673
1 25159U 98007C   16046.86401597 +.00000677 +00000-0 +31569-3 0  9990,2 25159 107.9783 013.7224 0043559 038.9622 321.4641 14.29033862936742
1 25159U 98007C   16046.93401673  .00000617  00000-0  29224-3 0  9992,2 25159 107.9783  13.8650 0043564  38.8338 321.5916 14.29033665936821
1 25159U 98007C   16047.84402552 +.00000756 +00000-0 +34642-3 0  9994,2 25159 107.9784 015.7188 0043614 037.2484 323.1665 14.29036077936885
1 25159U 98007C   16048.47403059  .00000802  00000-0  36433-3 0  9999,2 25159 107.9784  17.0023 0043654  36.1511 324.2564 14.29037617937041
1 25159U 98007C   16048.82403344 +.00000757 +00000-0 +34684-3 0  9990,2 25159 107.9785 017.7153 0043674 035.5311 324.8721 14.29038010937023
1 25159U 98007C   16049.80404068  .00000735  00000-0  33808-3 0  9996,2 25159 107.9786  19.7119 0043734  33.8118 326.5795 14.29039613937234
1 25159U 98007C   16049.87404110 +.00000734 +00000-0 +33768-3 0  9995,2 25159 107.9786 019.8545 0043736 033.6857 326.7047 14.29039745937179
1 25159U 98007C   16050.85404729  .00000579  00000-0  27713-3 0  9991,2 25159 107.9787  21.8510 0043796  31.9674 328.4107 14.29040549937382
1 25159U 98007C   16050.92404755 +.00000582 +00000-0 +27838-3 0  9990,2 25159 107.9787 021.9936 0043796 031.8375 328.5396 14.29040723937321
1 25159U 98007C   16051.83405241 +.00000517 +00000-0 +25316-3 0  9999,2 25159 107.9789 023.8476 0043854 030.2537 330.1119 14.29041781937452
1 25159U 98007C   16052.53405539  .00000488  00000-0  24190-3 0  9993,2 25159 107.9790  25.2738 0043905  29.0453 331.3114 14.29042737937620
1 25159U 98007C   16052.88405677 +.00000476 +00000-0 +23696-3 0  9991,2 25159 107.9791 025.9868 0043920 028.4241 331.9279 14.29043168937602
1 25159U 98007C   16053.86405999  .00000435  00000-0  22120-3 0  9993,2 25159 107.9793  27.9834 0043976  26.7238 333.6153 14.29044324937815
1 25159U 98007C   16054.84406247 +.00000416 +00000-0 +21376-3 0  9990,2 25159 107.9795 029.9801 0044036 025.0410 335.2851 14.29045473937881
1 25159U 98007C   16055.47406351  .00000437  00000-0  22195-3 0  9999,2 25159 107.9796  31.2636 0044074  23.9717 336.3460 14.29046395938044
1 25159U 98007C   16055.89406414 +.00000407 +00000-0 +21032-3 0  9991,2 25159 107.9798 032.1194 0044090 023.2167 337.0950 14.29046688938031
1 25159U 98007C   16056.73406494  .00000420  00000-0  21510-3 0  9999,2 25159 107.9800  33.8308 0044140  21.7512 338.5487 14.29047684938222
1 25159U 98007C   16056.87406499 +.00000361 +00000-0 +19209-3 0  9995,2 25159 107.9800 034.1161 0044143 021.4992 338.7987 14.29047540938177
1 25159U 98007C   16057.85406531  .00000369  00000-0  19549-3 0  9996,2 25159 107.9802  36.1128 0044193  19.8069 340.4772 14.29048599938385
1 25159U 98007C   16058.90406472 +.00000389 +00000-0 +20296-3 0  9990,2 25159 107.9803 038.2522 0044250 017.9660 342.3030 14.29049795938463
1 25159U 98007C   16058.97406458  .00000348  00000-0  18728-3 0  9993,2 25159 107.9803  38.3949 0044255  17.8319 342.4360 14.29049672938542
1 25159U 98007C   16059.88406347 +.00000392 +00000-0 +20411-3 0  9992,2 25159 107.9804 040.2490 0044306 016.2534 344.0013 14.29050814938605
1 25159U 98007C   16060.51406224  .00000409  00000-0  21095-3 0  9996,2 25159 107.9805  41.5326 0044342  15.1817 345.0640 14.29051586938761
1 25159U 98007C   16060.93406118 +.00000339 +00000-0 +18362-3 0  9999,2 25159 107.9805 042.3884 0044366 014.4488 345.7907 14.29051677938754
1 25159U 98007C   16061.84405864  .00000418  00000-0  21451-3 0  9998,2 25159 107.9806  44.2426 0044416  12.8917 347.3345 14.29053029938952
1 25159U 98007C   16062.89405469  .00000406  00000-0  20975-3 0  9992,2 25159 107.9806  46.3820 0044467  11.0743 349.1363 14.29054124939102
1 25159U 98007C   16063.87405001 +.00000413 +00000-0 +21234-3 0  9990,2 25159 107.9807 048.3789 0044525 009.3875 350.8084 14.29055332939178
1 25159U 98007C   16064.50404656  .00000470  00000-0  23459-3 0  9990,2 25159 107.9807  49.6626 0044554   8.3052 351.8813 14.29056385939338
1 25159U 98007C   16064.85404463 +.00000446 +00000-0 +22514-3 0  9998,2 25159 107.9808 050.3758 0044574 007.6904 352.4908 14.29056618939313
1 25159U 98007C   16065.83403819  .00000498  00000-0  24534-3 0  9992,2 25159 107.9809  52.3726 0044623   5.9941 354.1722 14.29058116939529
1 25159U 98007C   16065.90403771 +.00000437 +00000-0 +22191-3 0  9997,2 25159 107.9809 052.5152 0044627 005.8692 354.2960 14.29057884939469
1 25159U 98007C   16066.88403022  .00000503  00000-0  24757-3 0  9998,2 25159 107.9810  54.5121 0044670   4.1785 355.9717 14.29059512939673
1 25159U 98007C   16067.86402123 +.00000555 +00000-0 +26763-3 0  9994,2 25159 107.9811 056.5091 0044722 002.4866 357.6485 14.29061274939748
1 25159U 98007C   16068.42401560  .00000539  00000-0  26150-3 0  9993,2 25159 107.9812  57.6502 0044740   1.5259 358.6008 14.29062090939899
1 25159U 98007C   16068.84401149 +.00000520 +00000-0 +25393-3 0  9990,2 25159 107.9812 058.5060 0044763 000.8048 359.3154 14.29062537939886
1 25159U 98007C   16069.89400006  .00000508  00000-0  24946-3 0  9996,2 25159 107.9814  60.6457 0044798 359.0286   1.0757 14.29064032940102
1 25159U 98007C   16070.87398829 +.00000490 +00000-0 +24229-3 0  9999,2 25159 107.9815 062.6426 0044843 357.3478 002.7415 14.29065406940178
1 25159U 98007C   16071.01398641  .00000491  00000-0  24274-3 0  9999,2 25159 107.9815  62.9279 0044857 357.0987   2.9884 14.29065658940265
1 25159U 98007C   16071.92397429 +.00000583 +00000-0 +27851-3 0  9998,2 25159 107.9816 064.7823 0044882 355.5509 004.5224 14.29067562940321
1 25159U 98007C   16072.55396550  .00000535  00000-0  25969-3 0  9997,2 25159 107.9816  66.0661 0044905 354.4775   5.5862 14.29068257940483
1 25159U 98007C   16072.90396057 +.00000508 +00000-0 +24927-3 0  9991,2 25159 107.9816 066.7794 0044928 353.8718 006.1864 14.29068586940464
1 25159U 98007C   16073.81394720  .00000490  00000-0  24250-3 0  9996,2 25159 107.9817  68.6338 0044981 352.3172   7.7272 14.29069711940660
1 25159U 98007C   16073.88394608 +.00000472 +00000-0 +23536-3 0  9994,2 25159 107.9817 068.7764 0044987 352.1942 007.8491 14.29069725940606
1 25159U 98007C   16074.86393071  .00000468  00000-0  23368-3 0  9994,2 25159 107.9818  70.7735 0045034 350.5090   9.5192 14.29070972940814
1 25159U 98007C   16074.93392953 +.00000467 +00000-0 +23340-3 0  9999,2 25159 107.9818 070.9161 0045054 350.3728 009.6542 14.29071067940756
1 25159U 98007C   16075.91391296 +.00000491 +00000-0 +24276-3 0  9993,2 25159 107.9819 072.9132 0045077 348.7049 011.3073 14.29072559940890
1 25159U 98007C   16075.98391175  .00000490  00000-0  24225-3 0  9999,2 25159 107.9819  73.0558 0045080 348.5832  11.4279 14.29072649940974
